OBJECT_NAME,OBJECT_ID,EPOCH,MEAN_MOTION,ECCENTRICITY,INCLINATION,RA_OF_ASC_NODE,ARG_OF_PERICENTER,MEAN_ANOMALY,EPHEMERIS_TYPE,CLASSIFICATION_TYPE,NORAD_CAT_ID,ELEMENT_SET_NO,REV_AT_EPOCH,BSTAR,MEAN_MOTION_DOT,MEAN_MOTION_DDOT
BEIDOU-2 IGSO-5 (C10),2011-073A,2026-06-24T15:46:07.226112,1.00272136,.01142233,47.6633,271.4526,222.0346,107.5350,0,U,37948,999,5320,0,-.196E-5,0
LUCH 5A (SDCM/PRN 140),2011-074B,2026-06-30T15:12:59.798016,1.00272761,.0002723,8.7862,73.6128,38.7683,201.5027,0,U,37951,999,5318,0,-.46E-6,0
BEIDOU-2 G5 (C05),2012-008A,2026-06-30T17:46:37.917696,1.00277198,.0008419,3.6065,69.6198,275.7883,258.8500,0,U,38091,999,5250,0,.63E-6,0
BEIDOU-2 M3 (C11),2012-018A,2026-06-29T00:02:32.566848,1.86230042,.00203324,55.7467,304.4763,273.2812,86.4840,0,U,38250,999,9616,0,-.84E-6,0
BEIDOU-2 M4 (C12),2012-018B,2026-06-27T20:38:38.167008,1.86229628,.00115226,55.6479,303.7280,274.3517,85.5111,0,U,38251,999,9614,0,-.92E-6,0
SES-5 (EGNOS/PRN 136),2012-036A,2026-06-30T19:14:00.439008,1.00272258,.0002286,0.0479,316.3488,143.2223,112.7779,0,U,38652,999,4459,0,.44E-6,0
BEIDOU-2 M6 (C14),2012-050B,2026-06-27T00:47:22.523712,1.86231134,.00134699,56.5526,62.5688,358.4918,1.5505,0,U,38775,999,9349,0,-.8E-6,0
GSAT-10 (GAGAN/PRN 128),2012-051B,2026-06-29T19:24:07.039584,1.00271319,.00081909,0.0552,254.1806,197.7621,199.9950,0,U,38779,999,5022,0,-.154E-5,0
GPS BIIF-3  (PRN 24),2012-053A,2026-06-30T18:39:32.944896,2.00567775,.01811,53.5880,143.0427,65.9717,295.8688,0,U,38833,999,9971,0,.24E-6,0
GSAT0103 (GALILEO-FM3),2012-055A,2026-06-29T19:03:19.372608,1.70473507,.00044239,55.8136,101.1997,307.4227,52.5245,0,U,38857,999,8522,0,-.25E-6,0
BEIDOU-2 G6 (C02),2012-059A,2026-06-30T20:33:21.751200,1.00270791,.0009553,4.4550,73.3817,329.4513,268.4516,0,U,38953,999,5004,0,-.168E-5,0
LUCH 5B (SDCM/PRN 125),2012-061A,2026-06-30T10:34:32.570400,1.00272809,.00030012,10.5117,49.7507,132.8087,238.3434,0,U,38977,999,4974,0,-.133E-5,0
COSMOS 2485 (747),2013-019A,2026-06-28T15:23:45.642336,2.13103400,.00228978,65.4258,73.2198,232.6425,127.1980,0,U,39155,999,10252,0,-.37E-6,0
GPS BIIF-4  (PRN 27),2013-023A,2026-06-29T15:32:38.224896,2.00563548,.01414089,54.4943,268.4658,51.0644,310.2473,0,U,39166,999,9613,0,-.12E-6,0
IRNSS-1A,2013-034A,2026-06-30T17:45:45.502272,1.00278919,.0017845,35.7497,63.6762,181.6086,355.0002,0,U,39199,999,4750,0,.6E-6,0
GPS BIIF-5  (PRN 30),2014-008A,2026-06-30T03:33:05.246496,2.00560685,.00842271,53.6564,148.7912,231.4398,127.7657,0,U,39533,999,8994,0,.27E-6,0
ASTRA 5B (EGNOS/PRN 123),2014-011B,2026-06-30T14:11:19.757760,1.00274236,.0002151,0.0487,334.0090,112.9922,67.9781,0,U,39617,999,4480,0,.148E-5,0
COSMOS 2492 (754),2014-012A,2026-06-30T00:11:42.287712,2.13103439,.0010254,65.2898,313.4997,322.0501,37.8715,0,U,39620,999,9551,0,-.64E-6,0
IRNSS-1B,2014-017A,2026-06-30T17:45:30.524832,1.00271175,.0022886,28.9013,240.1691,193.6011,166.4720,0,U,39635,999,4493,0,.148E-5,0
LUCH 5V (SDCM/PRN 141),2014-023A,2026-06-30T20:33:21.751200,1.00270703,.0002598,5.1654,69.6116,54.6259,197.7740,0,U,39727,999,4449,0,-.262E-5,0
GPS BIIF-6  (PRN 06),2014-026A,2026-06-30T10:10:06.558528,2.00560200,.0038108,56.4914,331.0025,326.2502,33.4998,0,U,39741,999,8880,0,-.88E-6,0
COSMOS 2500 (755),2014-032A,2026-06-30T15:31:38.616672,2.13106154,.0007794,65.2240,313.2243,187.2984,172.6869,0,U,40001,999,9374,0,-.59E-6,0
GPS BIIF-7  (PRN 09),2014-045A,2026-06-28T12:30:25.283808,2.00559298,.0033785,55.3602,88.0134,118.2932,242.0599,0,U,40105,999,8630,0,-.52E-6,0
GSAT0201 (GALILEO 5),2014-050A,2026-06-29T06:35:26.939040,1.85520280,.16762517,48.8619,272.9404,179.8513,180.2703,0,U,40128,999,7854,0,-.39E-6,0
GSAT0202 (GALILEO 6),2014-050B,2026-06-30T14:35:38.437728,1.85520713,.1677698,48.8773,271.9714,180.6428,179.1780,0,U,40129,999,8073,0,-.31E-6,0
IRNSS-1C,2014-061A,2026-06-28T19:41:49.058880,1.00274876,.00221059,6.5464,88.7100,4.4529,202.1283,0,U,40269,999,4280,0,-.156E-5,0
GPS BIIF-8  (PRN 03),2014-068A,2026-06-29T21:15:33.901056,2.00577139,.00672902,56.9963,30.4657,71.0544,289.7365,0,U,40294,999,8546,0,-.65E-6,0
COSMOS 2501 (702K),2014-075A,2026-06-30T10:33:31.413888,2.13101453,.00226357,63.6170,189.9132,212.5837,147.3119,0,U,40315,999,9013,0,.79E-6,0
GPS BIIF-9  (PRN 26),2015-013A,2026-06-30T12:35:43.016352,2.00550649,.0109886,53.1672,203.6259,40.2414,320.6261,0,U,40534,999,8209,0,.69E-6,0
GSAT0203 (GALILEO 7),2015-017A,2026-06-28T08:35:20.684256,1.70476391,.00021619,56.7824,341.2913,267.9865,91.9808,0,U,40544,999,6939,0,-.92E-6,0
GSAT0204 (GALILEO 8),2015-017B,2026-06-28T00:39:02.769696,1.70475922,.00022247,56.7895,341.3189,238.6181,121.3527,0,U,40545,999,3243,0,-.93E-6,0
